{
  "type": "FeatureCollection",
  "features": [
    {
      "type": "Feature",
      "properties": {
        "norad_id": 30342,
        "name": "FENGYUN 1C DEB",
        "group": "fengyun-1c-debris",
        "lat": -16.184721336379468,
        "lon": -15.0784406090048,
        "alt_km": 940.1383990753438,
        "timestamp": "2025-12-14T07:33:19.753287+00:00",
        "meta_object_name": "FENGYUN 1C DEB",
        "meta_object_id": "1999-025ABD",
        "meta_epoch": "2025-12-13T11:45:20.085984",
        "meta_mean_motion": 13.80045466,
        "meta_eccentricity": 0.01682976,
        "meta_inclination": 100.1955,
        "meta_ra_of_asc_node": 167.0271,
        "meta_arg_of_pericenter": 120.7271,
        "meta_mean_anomaly": 297.1327,
        "meta_ephemeris_type": 0,
        "meta_classification_type": "U",
        "meta_norad_cat_id": 30342,
        "meta_element_set_no": 999,
        "meta_rev_at_epoch": 94899,
        "meta_bstar": 0.00092054214,
        "meta_mean_motion_dot": 1.015e-05,
        "meta_mean_motion_ddot": 0,
        "tle_line1": "1 30342U 99025ABD 25347.48981581  .00001015  00000+0  92054-3 0  9991",
        "tle_line2": "2 30342 100.1955 167.0271 0168297 120.7271 297.1327 13.80045466948999"
      },
      "geometry": {
        "type": "Point",
        "coordinates": [
          -15.0784406090048,
          -16.184721336379468
        ]
      }
    },
    {
      "type": "Feature",
      "properties": {
        "norad_id": 30344,
        "name": "FENGYUN 1C DEB",
        "group": "fengyun-1c-debris",
        "lat": -31.96785471963417,
        "lon": 76.01031575304481,
        "alt_km": 730.6332951304721,
        "timestamp": "2025-12-14T07:33:19.753298+00:00",
        "meta_object_name": "FENGYUN 1C DEB",
        "meta_object_id": "1999-025ABF",
        "meta_epoch": "2025-12-13T05:19:58.087776",
        "meta_mean_motion": 14.51773995,
        "meta_eccentricity": 0.00079516,
        "meta_inclination": 98.8194,
        "meta_ra_of_asc_node": 69.3037,
        "meta_arg_of_pericenter": 119.8531,
        "meta_mean_anomaly": 260.7311,
        "meta_ephemeris_type": 0,
        "meta_classification_type": "U",
        "meta_norad_cat_id": 30344,
        "meta_element_set_no": 999,
        "meta_rev_at_epoch": 98084,
        "meta_bstar": 0.0036718978,
        "meta_mean_motion_dot": 0.0001475,
        "meta_mean_motion_ddot": 0,
        "tle_line1": "1 30344U 99025ABF 25347.22220009  .00014750  00000+0  36719-2 0  9991",
        "tle_line2": "2 30344  98.8194  69.3037 0007951 119.8531 260.7311 14.51773995980843"
      },
      "geometry": {
        "type": "Point",
        "coordinates": [
          76.01031575304481,
          -31.96785471963417
        ]
      }
    },
    {
      "type": "Feature",
      "properties": {
        "norad_id": 30345,
        "name": "FENGYUN 1C DEB",
        "group": "fengyun-1c-debris",
        "lat": -42.771623091511756,
        "lon": 56.10911756257338,
        "alt_km": 757.0670383556217,
        "timestamp": "2025-12-14T07:33:19.753310+00:00",
        "meta_object_name": "FENGYUN 1C DEB",
        "meta_object_id": "1999-025ABG",
        "meta_epoch": "2025-12-13T03:26:24.601920",
        "meta_mean_motion": 14.41670308,
        "meta_eccentricity": 0.0017389,
        "meta_inclination": 98.9208,
        "meta_ra_of_asc_node": 46.5313,
        "meta_arg_of_pericenter": 241.381,
        "meta_mean_anomaly": 118.5629,
        "meta_ephemeris_type": 0,
        "meta_classification_type": "U",
        "meta_norad_cat_id": 30345,
        "meta_element_set_no": 999,
        "meta_rev_at_epoch": 97779,
        "meta_bstar": 0.0030203262,
        "meta_mean_motion_dot": 9.825e-05,
        "meta_mean_motion_ddot": 0,
        "tle_line1": "1 30345U 99025ABG 25347.14334030  .00009825  00000+0  30203-2 0  9992",
        "tle_line2": "2 30345  98.9208  46.5313 0017389 241.3810 118.5629 14.41670308977797"
      },
      "geometry": {
        "type": "Point",
        "coordinates": [
          56.10911756257338,
          -42.771623091511756
        ]
      }
    },
    {
      "type": "Feature",
      "properties": {
        "norad_id": 30346,
        "name": "FENGYUN 1C DEB",
        "group": "fengyun-1c-debris",
        "lat": -15.755076578786952,
        "lon": 87.55483600418022,
        "alt_km": 750.8778553606908,
        "timestamp": "2025-12-14T07:33:19.753321+00:00",
        "meta_object_name": "FENGYUN 1C DEB",
        "meta_object_id": "1999-025ABH",
        "meta_epoch": "2025-12-13T05:06:44.610048",
        "meta_mean_motion": 14.33903033,
        "meta_eccentricity": 0.00553558,
        "meta_inclination": 98.8082,
        "meta_ra_of_asc_node": 83.926,
        "meta_arg_of_pericenter": 22.4403,
        "meta_mean_anomaly": 37.7685,
        "meta_ephemeris_type": 0,
        "meta_classification_type": "U",
        "meta_norad_cat_id": 30346,
        "meta_element_set_no": 999,
        "meta_rev_at_epoch": 97420,
        "meta_bstar": 0.0028473919,
        "meta_mean_motion_dot": 8.034e-05,
        "meta_mean_motion_ddot": 0,
        "tle_line1": "1 30346U 99025ABH 25347.21301632  .00008034  00000+0  28474-2 0  9991",
        "tle_line2": "2 30346  98.8082  83.9260 0055355  22.4403  37.7685 14.33903033974206"
      },
      "geometry": {
        "type": "Point",
        "coordinates": [
          87.55483600418022,
          -15.755076578786952
        ]
      }
    },
    {
      "type": "Feature",
      "properties": {
        "norad_id": 30347,
        "name": "FENGYUN 1C DEB",
        "group": "fengyun-1c-debris",
        "lat": 35.14826315961288,
        "lon": -2.0028173437263583,
        "alt_km": 961.5337763948091,
        "timestamp": "2025-12-14T07:33:19.753332+00:00",
        "meta_object_name": "FENGYUN 1C DEB",
        "meta_object_id": "1999-025ABJ",
        "meta_epoch": "2025-12-13T12:09:57.811968",
        "meta_mean_motion": 13.92769169,
        "meta_eccentricity": 0.01505662,
        "meta_inclination": 98.3766,
        "meta_ra_of_asc_node": 171.3113,
        "meta_arg_of_pericenter": 31.6083,
        "meta_mean_anomaly": 22.6429,
        "meta_ephemeris_type": 0,
        "meta_classification_type": "U",
        "meta_norad_cat_id": 30347,
        "meta_element_set_no": 999,
        "meta_rev_at_epoch": 95971,
        "meta_bstar": 0.00020295981,
        "meta_mean_motion_dot": 2.51e-06,
        "meta_mean_motion_ddot": 0,
        "tle_line1": "1 30347U 99025ABJ 25347.50691912  .00000251  00000+0  20296-3 0  9995",
        "tle_line2": "2 30347  98.3766 171.3113 0150566  31.6083  22.6429 13.92769169959718"
      },
      "geometry": {
        "type": "Point",
        "coordinates": [
          -2.0028173437263583,
          35.14826315961288
        ]
      }
    },
    {
      "type": "Feature",
      "properties": {
        "norad_id": 30348,
        "name": "FENGYUN 1C DEB",
        "group": "fengyun-1c-debris",
        "lat": -73.33729612067701,
        "lon": 114.53247845279367,
        "alt_km": 781.3706991977961,
        "timestamp": "2025-12-14T07:33:19.753342+00:00",
        "meta_object_name": "FENGYUN 1C DEB",
        "meta_object_id": "1999-025ABK",
        "meta_epoch": "2025-12-12T19:40:22.405728",
        "meta_mean_motion": 14.351044,
        "meta_eccentricity": 0.00171836,
        "meta_inclination": 98.8629,
        "meta_ra_of_asc_node": 81.5774,
        "meta_arg_of_pericenter": 16.1491,
        "meta_mean_anomaly": 108.2791,
        "meta_ephemeris_type": 0,
        "meta_classification_type": "U",
        "meta_norad_cat_id": 30348,
        "meta_element_set_no": 999,
        "meta_rev_at_epoch": 97535,
        "meta_bstar": 0.0029260558,
        "meta_mean_motion_dot": 8.327e-05,
        "meta_mean_motion_ddot": 0,
        "tle_line1": "1 30348U 99025ABK 25346.81970377  .00008327  00000+0  29261-2 0  9996",
        "tle_line2": "2 30348  98.8629  81.5774 0017183  16.1491 108.2791 14.35104400975355"
      },
      "geometry": {
        "type": "Point",
        "coordinates": [
          114.53247845279367,
          -73.33729612067701
        ]
      }
    },
    {
      "type": "Feature",
      "properties": {
        "norad_id": 30349,
        "name": "FENGYUN 1C DEB",
        "group": "fengyun-1c-debris",
        "lat": 52.52852802486665,
        "lon": 142.0550721555985,
        "alt_km": 881.1833968131787,
        "timestamp": "2025-12-14T07:33:19.753352+00:00",
        "meta_object_name": "FENGYUN 1C DEB",
        "meta_object_id": "1999-025ABL",
        "meta_epoch": "2025-12-13T11:07:18.828768",
        "meta_mean_motion": 14.11118151,
        "meta_eccentricity": 0.00893212,
        "meta_inclination": 98.5839,
        "meta_ra_of_asc_node": 309.8768,
        "meta_arg_of_pericenter": 10.2447,
        "meta_mean_anomaly": 112.6844,
        "meta_ephemeris_type": 0,
        "meta_classification_type": "U",
        "meta_norad_cat_id": 30349,
        "meta_element_set_no": 999,
        "meta_rev_at_epoch": 96241,
        "meta_bstar": 0.0033613841,
        "meta_mean_motion_dot": 6.246e-05,
        "meta_mean_motion_ddot": 0,
        "tle_line1": "1 30349U 99025ABL 25347.46341237  .00006246  00000+0  33614-2 0  9991",
        "tle_line2": "2 30349  98.5839 309.8768 0089321  10.2447 112.6844 14.11118151962417"
      },
      "geometry": {
        "type": "Point",
        "coordinates": [
          142.0550721555985,
          52.52852802486665
        ]
      }
    }
  ]
}